{
  "type": "FeatureCollection",
  "features": [
    {
      "type": "Feature",
      "properties": {
        "norad_id": 35240,
        "name": "FENGYUN 1C DEB",
        "group": "fengyun-1c-debris",
        "lat": -49.13674275710349,
        "lon": 107.40256556479451,
        "alt_km": 799.7026188655655,
        "timestamp": "2025-12-02T13:52:17.549872+00:00",
        "meta_object_name": "FENGYUN 1C DEB",
        "meta_object_id": "1999-025DQY",
        "meta_epoch": "2025-12-01T08:06:41.001120",
        "meta_mean_motion": 14.23152586,
        "meta_eccentricity": 0.00455865,
        "meta_inclination": 99.3488,
        "meta_ra_of_asc_node": 297.0642,
        "meta_arg_of_pericenter": 184.8902,
        "meta_mean_anomaly": 175.1834,
        "meta_ephemeris_type": 0,
        "meta_classification_type": "U",
        "meta_norad_cat_id": 35240,
        "meta_element_set_no": 999,
        "meta_rev_at_epoch": 93002,
        "meta_bstar": 0.0020953333,
        "meta_mean_motion_dot": 4.737e-05,
        "meta_mean_motion_ddot": 0,
        "tle_line1": "1 35240U 99025DQY 25335.33797455  .00004737  00000+0  20953-2 0  9991",
        "tle_line2": "2 35240  99.3488 297.0642 0045586 184.8902 175.1834 14.23152586930027"
      },
      "geometry": {
        "type": "Point",
        "coordinates": [
          107.40256556479451,
          -49.13674275710349
        ]
      }
    },
    {
      "type": "Feature",
      "properties": {
        "norad_id": 35241,
        "name": "FENGYUN 1C DEB",
        "group": "fengyun-1c-debris",
        "lat": -51.229184536261464,
        "lon": 75.27943744367451,
        "alt_km": 795.3792099291395,
        "timestamp": "2025-12-02T13:52:17.549881+00:00",
        "meta_object_name": "FENGYUN 1C DEB",
        "meta_object_id": "1999-025DQZ",
        "meta_epoch": "2025-11-30T05:56:44.334240",
        "meta_mean_motion": 14.01843685,
        "meta_eccentricity": 0.01367336,
        "meta_inclination": 98.628,
        "meta_ra_of_asc_node": 263.9706,
        "meta_arg_of_pericenter": 244.1586,
        "meta_mean_anomaly": 114.5426,
        "meta_ephemeris_type": 0,
        "meta_classification_type": "U",
        "meta_norad_cat_id": 35241,
        "meta_element_set_no": 999,
        "meta_rev_at_epoch": 87431,
        "meta_bstar": 0.001716208,
        "meta_mean_motion_dot": 2.791e-05,
        "meta_mean_motion_ddot": 0,
        "tle_line1": "1 35241U 99025DQZ 25334.24773535  .00002791  00000+0  17162-2 0  9990",
        "tle_line2": "2 35241  98.6280 263.9706 0136733 244.1586 114.5426 14.01843685874312"
      },
      "geometry": {
        "type": "Point",
        "coordinates": [
          75.27943744367451,
          -51.229184536261464
        ]
      }
    },
    {
      "type": "Feature",
      "properties": {
        "norad_id": 35242,
        "name": "FENGYUN 1C DEB",
        "group": "fengyun-1c-debris",
        "lat": -23.413248696644512,
        "lon": 33.43023353084046,
        "alt_km": 1184.6301485788263,
        "timestamp": "2025-12-02T13:52:17.549892+00:00",
        "meta_object_name": "FENGYUN 1C DEB",
        "meta_object_id": "1999-025DRA",
        "meta_epoch": "2025-11-30T22:04:23.860704",
        "meta_mean_motion": 13.52294722,
        "meta_eccentricity": 0.03015867,
        "meta_inclination": 99.9707,
        "meta_ra_of_asc_node": 27.3938,
        "meta_arg_of_pericenter": 217.9619,
        "meta_mean_anomaly": 326.6369,
        "meta_ephemeris_type": 0,
        "meta_classification_type": "U",
        "meta_norad_cat_id": 35242,
        "meta_element_set_no": 999,
        "meta_rev_at_epoch": 57967,
        "meta_bstar": 0.0020813864,
        "meta_mean_motion_dot": 1.781e-05,
        "meta_mean_motion_ddot": 0,
        "tle_line1": "1 35242U 99025DRA 25334.91972061  .00001781  00000+0  20814-2 0  9996",
        "tle_line2": "2 35242  99.9707  27.3938 0301586 217.9619 326.6369 13.52294722579675"
      },
      "geometry": {
        "type": "Point",
        "coordinates": [
          33.43023353084046,
          -23.413248696644512
        ]
      }
    },
    {
      "type": "Feature",
      "properties": {
        "norad_id": 35243,
        "name": "FENGYUN 1C DEB",
        "group": "fengyun-1c-debris",
        "lat": 21.898284627966746,
        "lon": -122.12951795052747,
        "alt_km": 639.7490746811691,
        "timestamp": "2025-12-02T13:52:17.549902+00:00",
        "meta_object_name": "FENGYUN 1C DEB",
        "meta_object_id": "1999-025DRB",
        "meta_epoch": "2025-12-01T11:18:26.496864",
        "meta_mean_motion": 14.86280097,
        "meta_eccentricity": 0.00662914,
        "meta_inclination": 98.8826,
        "meta_ra_of_asc_node": 53.0309,
        "meta_arg_of_pericenter": 292.8769,
        "meta_mean_anomaly": 66.5454,
        "meta_ephemeris_type": 0,
        "meta_classification_type": "U",
        "meta_norad_cat_id": 35243,
        "meta_element_set_no": 999,
        "meta_rev_at_epoch": 90833,
        "meta_bstar": 0.0029026481,
        "meta_mean_motion_dot": 0.00026601,
        "meta_mean_motion_ddot": 0,
        "tle_line1": "1 35243U 99025DRB 25335.47114001  .00026601  00000+0  29026-2 0  9993",
        "tle_line2": "2 35243  98.8826  53.0309 0066291 292.8769  66.5454 14.86280097908335"
      },
      "geometry": {
        "type": "Point",
        "coordinates": [
          -122.12951795052747,
          21.898284627966746
        ]
      }
    },
    {
      "type": "Feature",
      "properties": {
        "norad_id": 35244,
        "name": "FENGYUN 1C DEB",
        "group": "fengyun-1c-debris",
        "lat": -5.004556344480002,
        "lon": -163.7522013125739,
        "alt_km": 822.7504810659993,
        "timestamp": "2025-12-02T13:52:17.549912+00:00",
        "meta_object_name": "FENGYUN 1C DEB",
        "meta_object_id": "1999-025DRC",
        "meta_epoch": "2025-11-28T08:16:08.942880",
        "meta_mean_motion": 14.06587335,
        "meta_eccentricity": 0.00714695,
        "meta_inclination": 98.8424,
        "meta_ra_of_asc_node": 12.8921,
        "meta_arg_of_pericenter": 197.497,
        "meta_mean_anomaly": 162.3735,
        "meta_ephemeris_type": 0,
        "meta_classification_type": "U",
        "meta_norad_cat_id": 35244,
        "meta_element_set_no": 999,
        "meta_rev_at_epoch": 65619,
        "meta_bstar": 0.00065997772,
        "meta_mean_motion_dot": 1.076e-05,
        "meta_mean_motion_ddot": 0,
        "tle_line1": "1 35244U 99025DRC 25332.34454795  .00001076  00000+0  65998-3 0  9992",
        "tle_line2": "2 35244  98.8424  12.8921 0071469 197.4970 162.3735 14.06587335656198"
      },
      "geometry": {
        "type": "Point",
        "coordinates": [
          -163.7522013125739,
          -5.004556344480002
        ]
      }
    },
    {
      "type": "Feature",
      "properties": {
        "norad_id": 35245,
        "name": "FENGYUN 1C DEB",
        "group": "fengyun-1c-debris",
        "lat": -25.562670241575937,
        "lon": -122.44252853779658,
        "alt_km": 857.0751055391693,
        "timestamp": "2025-12-02T13:52:17.549922+00:00",
        "meta_object_name": "FENGYUN 1C DEB",
        "meta_object_id": "1999-025DRD",
        "meta_epoch": "2025-12-02T04:32:20.859648",
        "meta_mean_motion": 14.12979881,
        "meta_eccentricity": 0.00581794,
        "meta_inclination": 99.0852,
        "meta_ra_of_asc_node": 61.5525,
        "meta_arg_of_pericenter": 300.4147,
        "meta_mean_anomaly": 89.1685,
        "meta_ephemeris_type": 0,
        "meta_classification_type": "U",
        "meta_norad_cat_id": 35245,
        "meta_element_set_no": 999,
        "meta_rev_at_epoch": 87628,
        "meta_bstar": 0.0019494848,
        "meta_mean_motion_dot": 3.648e-05,
        "meta_mean_motion_ddot": 0,
        "tle_line1": "1 35245U 99025DRD 25336.18913032  .00003648  00000+0  19495-2 0  9990",
        "tle_line2": "2 35245  99.0852  61.5525 0058179 300.4147  89.1685 14.12979881876285"
      },
      "geometry": {
        "type": "Point",
        "coordinates": [
          -122.44252853779658,
          -25.562670241575937
        ]
      }
    },
    {
      "type": "Feature",
      "properties": {
        "norad_id": 36147,
        "name": "FENGYUN 1C DEB",
        "group": "fengyun-1c-debris",
        "lat": 26.834841144258462,
        "lon": -129.3528765449445,
        "alt_km": 1314.9459331883081,
        "timestamp": "2025-12-02T13:52:17.549932+00:00",
        "meta_object_name": "FENGYUN 1C DEB",
        "meta_object_id": "1999-025DRU",
        "meta_epoch": "2025-11-30T21:50:24.807840",
        "meta_mean_motion": 13.46453652,
        "meta_eccentricity": 0.04407422,
        "meta_inclination": 98.5269,
        "meta_ra_of_asc_node": 44.8692,
        "meta_arg_of_pericenter": 293.3481,
        "meta_mean_anomaly": 62.1872,
        "meta_ephemeris_type": 0,
        "meta_classification_type": "U",
        "meta_norad_cat_id": 36147,
        "meta_element_set_no": 999,
        "meta_rev_at_epoch": 59838,
        "meta_bstar": 0.0016909351,
        "meta_mean_motion_dot": 1.8e-05,
        "meta_mean_motion_ddot": 0,
        "tle_line1": "1 36147U 99025DRU 25334.91000935  .00001800  00000+0  16909-2 0  9995",
        "tle_line2": "2 36147  98.5269  44.8692 0440742 293.3481  62.1872 13.46453652598384"
      },
      "geometry": {
        "type": "Point",
        "coordinates": [
          -129.3528765449445,
          26.834841144258462
        ]
      }
    }
  ]
}